NORAD_CAT_ID,OBJECT_NAME,OBJECT_TYPE,EPOCH,MEAN_MOTION,ECCENTRICITY,INCLINATION,RA_OF_ASC_NODE,ARG_OF_PERICENTER,MEAN_ANOMALY,BSTAR,MEAN_MOTION_DOT,MEAN_MOTION_DDOT,TLE_LINE0,TLE_LINE1,TLE_LINE2,SEMIMAJOR_AXIS,PERIOD,APOGEE,PERIGEE,DECAYED
49760.0,STARLINK-3199,PAYLOAD,2023-11-28 20:36:56,15.08854776,0.000168,53.217,273.3532,95.1187,264.9997,0.0010539,0.00016531,0.0,0 STARLINK-3199,1 49760U 21115AN  23332.85898896  .00016531  00000-0  10539-2 0  9996,2 49760  53.2170 273.3532 0001680  95.1187 264.9997 15.08854776111210,6917.835,95.437,540.862,538.538,0.0
49760.0,STARLINK-3199,PAYLOAD,2023-11-29 01:23:05,15.08854156,0.0001757,53.2178,272.458,101.3751,258.7438,0.0010983,0.00017241,0.0,0 STARLINK-3199,1 49760U 21115AN  23333.05770788  .00017241  00000-0  10983-2 0  9990,2 49760  53.2178 272.4580 0001757 101.3751 258.7438 15.08854156110136,6917.837,95.437,540.918,538.487,0.0
49760.0,STARLINK-3199,PAYLOAD,2023-11-30 02:49:16,15.08840701,0.00018,53.2172,267.7042,92.6109,267.5089,0.00088898,0.00013889,0.0,0 STARLINK-3199,1 49760U 21115AN  23334.11755524  .00013889  00000-0  88898-3 0  9994,2 49760  53.2172 267.7042 0001800  92.6109 267.5089 15.08840701111400,6917.878,95.438,540.988,538.498,0.0
49760.0,STARLINK-3199,PAYLOAD,2023-12-01 01:04:40,15.0884229,0.0001672,53.2167,263.5402,108.8566,251.2608,0.00096392,0.00015087,0.0,0 STARLINK-3199,1 49760U 21115AN  23335.04491774  .00015087  00000-0  96392-3 0  9991,2 49760  53.2167 263.5402 0001672 108.8566 251.2608 15.08842290111549,6917.873,95.437,540.895,538.582,0.0
49760.0,STARLINK-3199,PAYLOAD,2023-12-01 05:50:50,15.0885208,0.0001666,53.2166,262.6474,108.9063,251.211,0.0011304,0.00017754,0.0,0 STARLINK-3199,1 49760U 21115AN  23335.24363628  .00017754  00000-0  11304-2 0  9991,2 49760  53.2166 262.6474 0001666 108.9063 251.2110 15.08852080110469,6917.843,95.437,540.861,538.556,0.0
49760.0,STARLINK-3199,PAYLOAD,2023-12-02 02:30:50,15.0889857,0.0002151,53.2163,258.7842,58.9553,301.165,0.0028517,0.00045464,0.0,0 STARLINK-3199,1 49760U 21115AN  23336.10474879  .00045464  00000-0  28517-2 0  9991,2 49760  53.2163 258.7842 0002151  58.9553 301.1650 15.08898570111705,6917.701,95.434,541.054,538.078,0.0
49760.0,STARLINK-3199,PAYLOAD,2023-12-03 03:57:01,15.08823986,0.0001568,53.2159,254.0249,117.9493,242.1658,-0.00024873,-4.243e-05,0.0,0 STARLINK-3199,1 49760U 21115AN  23337.16459750 -.00004243  00000-0 -24873-3 0  9993,2 49760  53.2159 254.0249 0001568 117.9493 242.1658 15.08823986111868,6917.929,95.439,540.879,538.71,0.0
49760.0,STARLINK-3199,PAYLOAD,2023-12-04 00:37:02,15.08836073,0.0001474,53.2157,250.1604,111.3002,248.8147,0.00022965,3.368e-05,0.0,0 STARLINK-3199,1 49760U 21115AN  23338.02572400  .00003368  00000-0  22965-3 0  9992,2 49760  53.2157 250.1604 0001474 111.3002 248.8147 15.08836073111999,6917.892,95.438,540.777,538.738,0.0
49760.0,STARLINK-3199,PAYLOAD,2023-12-05 03:38:35,15.08862142,0.0001599,53.2176,245.1017,100.2843,259.833,0.00071516,0.00011119,0.0,0 STARLINK-3199,1 49760U 21115AN  23339.15179873  .00011119  00000-0  71516-3 0  9993,2 49760  53.2176 245.1017 0001599 100.2843 259.8330 15.08862142112162,6917.813,95.436,540.784,538.572,0.0
49760.0,STARLINK-3199,PAYLOAD,2023-12-05 17:57:03,15.08850703,0.0001582,53.2172,242.4296,89.0727,271.0446,0.00017889,2.561e-05,0.0,0 STARLINK-3199,1 49760U 21115AN  23339.74795973  .00002561  00000-0  17889-3 0  9997,2 49760  53.2172 242.4296 0001582  89.0727 271.0446 15.08850703112258,6917.848,95.437,540.807,538.618,0.0
49760.0,STARLINK-3199,PAYLOAD,2023-12-06 03:29:22,15.08852421,0.0001652,53.2179,240.644,99.588,260.5298,0.00031536,4.736e-05,0.0,0 STARLINK-3199,1 49760U 21115AN  23340.14539719  .00004736  00000-0  31536-3 0  9998,2 49760  53.2179 240.6440 0001652  99.5880 260.5298 15.08852421111201,6917.842,95.437,540.85,538.565,0.0
49760.0,STARLINK-3199,PAYLOAD,2023-12-06 22:34:00,15.08838725,0.0001898,53.2173,237.0712,107.517,252.6029,0.00031116,4.667e-05,0.0,0 STARLINK-3199,1 49760U 21115AN  23340.94027903  .00004667  00000-0  31116-3 0  9990,2 49760  53.2173 237.0712 0001898 107.5170 252.6029 15.08838725111329,6917.884,95.438,541.062,538.436,0.0
49760.0,STARLINK-3199,PAYLOAD,2023-12-07 00:09:23,15.08836187,0.0001727,53.2171,236.7767,98.9219,261.1969,2.3482e-05,8.6e-07,0.0,0 STARLINK-3199,1 49760U 21115AN  23341.00652176  .00000086  00000-0  23482-4 0  9993,2 49760  53.2171 236.7767 0001727  98.9219 261.1969 15.08836187112443,6917.892,95.438,540.952,538.562,0.0
49760.0,STARLINK-3199,PAYLOAD,2023-12-07 17:38:38,15.08838426,0.000162,53.2164,233.5056,100.9356,259.1819,5.686e-05,6.17e-06,0.0,0 STARLINK-3199,1 49760U 21115AN  23341.73516233  .00000617  00000-0  56860-4 0  9992,2 49760  53.2164 233.5056 0001620 100.9356 259.1819 15.08838426111447,6917.885,95.438,540.871,538.63,0.0
49760.0,STARLINK-3199,PAYLOAD,2023-12-09 01:26:19,15.08852767,0.0001822,53.2176,227.5592,87.5151,272.6049,0.00018794,2.705e-05,0.0,0 STARLINK-3199,1 49760U 21115AN  23343.05995181  .00002705  00000-0  18794-3 0  9995,2 49760  53.2176 227.5592 0001822  87.5151 272.6049 15.08852767112759,6917.841,95.437,540.967,538.446,0.0
49760.0,STARLINK-3199,PAYLOAD,2023-12-10 20:21:46,15.08820232,0.0002523,53.2169,219.5299,78.5727,281.5548,-0.00017551,-3.079e-05,0.0,0 STARLINK-3199,1 49760U 21115AN  23344.84845973 -.00003079  00000-0 -17551-3 0  9993,2 49760  53.2169 219.5299 0002523  78.5727 281.5548 15.08820232111916,6917.941,95.439,541.551,538.06,0.0
49760.0,STARLINK-3199,PAYLOAD,2023-12-10 23:32:32,15.0884366,0.0001958,53.218,218.9366,63.2626,296.8567,0.00012781,1.747e-05,0.0,0 STARLINK-3199,1 49760U 21115AN  23344.98093475  .00001747  00000-0  12781-3 0  9998,2 49760  53.2180 218.9366 0001958  63.2626 296.8567 15.08843660113043,6917.869,95.437,541.089,538.38,0.0
49760.0,STARLINK-3199,PAYLOAD,2023-12-11 20:12:31,15.08855996,0.0001486,53.2166,215.0736,82.2867,277.8294,0.00020775,3.021e-05,0.0,0 STARLINK-3199,1 49760U 21115AN  23345.84203494  .00003021  00000-0  20775-3 0  9997,2 49760  53.2166 215.0736 0001486  82.2867 277.8294 15.08855996113175,6917.831,95.437,540.724,538.669,0.0
49760.0,STARLINK-3199,PAYLOAD,2023-12-11 21:47:55,15.08862337,0.0001743,53.2153,214.7807,61.226,298.8907,0.00019191,2.769e-05,0.0,0 STARLINK-3199,1 49760U 21115AN  23345.90828655  .00002769  00000-0  19191-3 0  9994,2 49760  53.2153 214.7807 0001743  61.2260 298.8907 15.08862337112075,6917.812,95.436,540.883,538.471,0.0
49760.0,STARLINK-3199,PAYLOAD,2023-12-12 20:03:19,15.08855093,0.0001407,53.2162,210.6149,82.084,278.0312,5.6909e-05,6.18e-06,0.0,0 STARLINK-3199,1 49760U 21115AN  23346.83564246  .00000618  00000-0  56909-4 0  9990,2 49760  53.2162 210.6149 0001407  82.0840 278.0312 15.08855093113321,6917.834,95.437,540.673,538.726,0.0
49760.0,STARLINK-3199,PAYLOAD,2023-12-12 21:38:42,15.08854158,0.000136,53.2154,210.318,83.413,276.7017,6.1179e-05,6.86e-06,0.0,0 STARLINK-3199,1 49760U 21115AN  23346.90188270  .00000686  00000-0  61179-4 0  9997,2 49760  53.2154 210.3180 0001360  83.4130 276.7017 15.08854158112225,6917.837,95.437,540.643,538.761,0.0
49760.0,STARLINK-3199,PAYLOAD,2023-12-13 19:54:06,15.08853325,0.0001473,53.2162,206.1532,82.0729,278.043,-7.9432e-05,-1.552e-05,0.0,0 STARLINK-3199,1 49760U 21115AN  23347.82923999 -.00001552  00000-0 -79432-4 0  9990,2 49760  53.2162 206.1532 0001473  82.0729 278.0430 15.08853325113479,6917.84,95.437,540.724,538.686,0.0
49760.0,STARLINK-3199,PAYLOAD,2023-12-14 19:44:53,15.08840319,0.0001619,53.217,201.696,96.4698,263.6479,6.8466e-05,8.02e-06,0.0,0 STARLINK-3199,1 49760U 21115AN  23348.82284190  .00000802  00000-0  68466-4 0  9994,2 49760  53.2170 201.6960 0001619  96.4698 263.6479 15.08840319113628,6917.879,95.438,540.864,538.624,0.0
49760.0,STARLINK-3199,PAYLOAD,2023-12-14 21:20:16,15.08841807,0.0001587,53.2164,201.3957,92.6694,267.448,7.8686e-05,9.65e-06,0.0,0 STARLINK-3199,1 49760U 21115AN  23348.88908010  .00000965  00000-0  78686-4 0  9999,2 49760  53.2164 201.3957 0001587  92.6694 267.4480 15.08841807112527,6917.875,95.437,540.838,538.642,0.0
49760.0,STARLINK-3199,PAYLOAD,2023-12-15 19:35:41,15.08835167,0.0001712,53.2161,197.2274,112.7292,247.3881,-3.7519e-05,-8.85e-06,0.0,0 STARLINK-3199,1 49760U 21115AN  23349.81644883 -.00000885  00000-0 -37519-4 0  9991,2 49760  53.2161 197.2274 0001712 112.7292 247.3881 15.08835167113779,6917.895,95.438,540.945,538.576,0.0
49760.0,STARLINK-3199,PAYLOAD,2023-12-16 21:01:51,15.08839375,0.0001424,53.2147,192.4711,90.2867,269.8289,2.2986e-05,7.8e-07,0.0,0 STARLINK-3199,1 49760U 21115AN  23350.87628849  .00000078  00000-0  22986-4 0  9997,2 49760  53.2147 192.4711 0001424  90.2867 269.8289 15.08839375112825,6917.882,95.438,540.732,538.762,0.0
49760.0,STARLINK-3199,PAYLOAD,2023-12-17 20:52:38,15.08846329,0.0001484,53.2148,188.0106,85.4201,274.6961,0.00026119,3.872e-05,0.0,0 STARLINK-3199,1 49760U 21115AN  23351.86988874  .00003872  00000-0  26119-3 0  9990,2 49760  53.2148 188.0106 0001484  85.4201 274.6961 15.08846329112973,6917.861,95.437,540.753,538.699,0.0
49760.0,STARLINK-3199,PAYLOAD,2023-12-18 19:08:02,15.08845298,0.0001541,53.2148,183.8478,80.7442,279.3724,0.00011744,1.582e-05,0.0,0 STARLINK-3199,1 49760U 21115AN  23352.79724826  .00001582  00000-0  11744-3 0  9992,2 49760  53.2148 183.8478 0001541  80.7442 279.3724 15.08845298114220,6917.864,95.437,540.795,538.663,0.0
49760.0,STARLINK-3199,PAYLOAD,2023-12-19 18:58:49,15.08840919,0.0001553,53.2147,179.3873,81.2862,278.8306,2.1201e-05,4.9e-07,0.0,0 STARLINK-3199,1 49760U 21115AN  23353.79084996  .00000049  00000-0  21201-4 0  9997,2 49760  53.2147 179.3873 0001553  81.2862 278.8306 15.08840919114374,6917.878,95.437,540.817,538.668,0.0
49760.0,STARLINK-3199,PAYLOAD,2023-12-20 18:49:36,15.08840404,0.0001453,53.2158,174.924,89.3813,270.7346,6.0673e-05,6.78e-06,0.0,0 STARLINK-3199,1 49760U 21115AN  23354.78444929  .00000678  00000-0  60673-4 0  9997,2 49760  53.2158 174.9240 0001453  89.3813 270.7346 15.08840404113417,6917.879,95.438,540.749,538.739,0.0
